[
    {
        "Altitude(m)": 705809.2375339441,
        "Argument of Periapsis(deg)": 0.004556048474650827,
        "Eccentricity": 0.0,
        "Inclination(deg)": 45.0,
        "Latitude(deg)": 38.26791732735649,
        "Longitude(deg)": -26.975473317562617,
        "Mean Anomaly(deg)": -240.84121334100763,
        "RAAN(deg)": 304.99569922341675,
        "Satellite Name": "Constellation 1 1349",
        "Satellite Number": 1349,
        "Semi-Major Axis(m)": 7083131.272910544,
        "Time(s)": 76
    },
    {
        "Altitude(m)": 705803.7089412571,
        "Argument of Periapsis(deg)": 0.004615996480896233,
        "Eccentricity": 0.0,
        "Inclination(deg)": 45.0,
        "Latitude(deg)": 38.24119676689443,
        "Longitude(deg)": -26.910244924492652,
        "Mean Anomaly(deg)": -240.78051220075778,
        "RAAN(deg)": 304.99564263425117,
        "Satellite Name": "Constellation 1 1349",
        "Satellite Number": 1349,
        "Semi-Major Axis(m)": 7083131.272910544,
        "Time(s)": 77
    },
    {
        "Altitude(m)": 705798.1747415605,
        "Argument of Periapsis(deg)": 0.004675944487141638,
        "Eccentricity": 0.0,
        "Inclination(deg)": 45.0,
        "Latitude(deg)": 38.214435164647035,
        "Longitude(deg)": -26.84506727177423,
        "Mean Anomaly(deg)": -240.71981106050785,
        "RAAN(deg)": 304.9955860450856,
        "Satellite Name": "Constellation 1 1349",
        "Satellite Number": 1349,
        "Semi-Major Axis(m)": 7083131.272910544,
        "Time(s)": 78
    },
    {
        "Altitude(m)": 705792.6349689843,
        "Argument of Periapsis(deg)": 0.004735892493387044,
        "Eccentricity": 0.0,
        "Inclination(deg)": 45.0,
        "Latitude(deg)": 38.187632589208086,
        "Longitude(deg)": -26.779940351097665,
        "Mean Anomaly(deg)": -240.65910992025792,
        "RAAN(deg)": 304.99552945592,
        "Satellite Name": "Constellation 1 1349",
        "Satellite Number": 1349,
        "Semi-Major Axis(m)": 7083131.272910544,
        "Time(s)": 79
    },
    {
        "Altitude(m)": 705787.089657698,
        "Argument of Periapsis(deg)": 0.004795840499632449,
        "Eccentricity": 0.0,
        "Inclination(deg)": 45.0,
        "Latitude(deg)": 38.16078910914105,
        "Longitude(deg)": -26.71486415379997,
        "Mean Anomaly(deg)": -240.5984087800081,
        "RAAN(deg)": 304.9954728667544,
        "Satellite Name": "Constellation 1 1349",
        "Satellite Number": 1349,
        "Semi-Major Axis(m)": 7083131.272910544,
        "Time(s)": 80
    },
    {
        "Altitude(m)": 705781.5388419181,
        "Argument of Periapsis(deg)": 0.004855788505877855,
        "Eccentricity": 0.0,
        "Inclination(deg)": 45.0,
        "Latitude(deg)": 38.13390479297877,
        "Longitude(deg)": -26.649838670865137,
        "Mean Anomaly(deg)": -240.53770763975817,
        "RAAN(deg)": 304.9954162775889,
        "Satellite Name": "Constellation 1 1349",
        "Satellite Number": 1349,
        "Semi-Major Axis(m)": 7083131.272910544,
        "Time(s)": 81
    },
    {
        "Altitude(m)": 705775.9825559052,
        "Argument of Periapsis(deg)": 0.00491573651212326,
        "Eccentricity": 0.0,
        "Inclination(deg)": 45.0,
        "Latitude(deg)": 38.10697970922249,
        "Longitude(deg)": -26.58486406102322,
        "Mean Anomaly(deg)": -240.4770064995083,
        "RAAN(deg)": 304.9953596884233,
        "Satellite Name": "Constellation 1 1349",
        "Satellite Number": 1349,
        "Semi-Major Axis(m)": 7083131.272910544,
        "Time(s)": 82
    },
    {
        "Altitude(m)": 705770.4208339653,
        "Argument of Periapsis(deg)": 0.004975684518368666,
        "Eccentricity": 0.0,
        "Inclination(deg)": 45.0,
        "Latitude(deg)": 38.08001392634273,
        "Longitude(deg)": -26.51993997836397,
        "Mean Anomaly(deg)": -240.4163053592584,
        "RAAN(deg)": 304.99530309925774,
        "Satellite Name": "Constellation 1 1349",
        "Satellite Number": 1349,
        "Semi-Major Axis(m)": 7083131.272910544,
        "Time(s)": 83
    },
    {
        "Altitude(m)": 705764.8537104339,
        "Argument of Periapsis(deg)": 0.005035632524614072,
        "Eccentricity": 0.0,
        "Inclination(deg)": 45.0,
        "Latitude(deg)": 38.053007512777135,
        "Longitude(deg)": -26.455066580919553,
        "Mean Anomaly(deg)": -240.3556042190085,
        "RAAN(deg)": 304.99524651009216,
        "Satellite Name": "Constellation 1 1349",
        "Satellite Number": 1349,
        "Semi-Major Axis(m)": 7083131.272910544,
        "Time(s)": 84
    },
    {
        "Altitude(m)": 705759.2812197001,
        "Argument of Periapsis(deg)": 0.0050955805308594785,
        "Eccentricity": 0.0,
        "Inclination(deg)": 45.0,
        "Latitude(deg)": 38.02596053693112,
        "Longitude(deg)": -26.390243858278637,
        "Mean Anomaly(deg)": -240.2949030787586,
        "RAAN(deg)": 304.9951899209266,
        "Satellite Name": "Constellation 1 1349",
        "Satellite Number": 1349,
        "Semi-Major Axis(m)": 7083131.272910544,
        "Time(s)": 85
    },
    {
        "Altitude(m)": 705753.703396194,
        "Argument of Periapsis(deg)": 0.005155528537104883,
        "Eccentricity": 0.0,
        "Inclination(deg)": 45.0,
        "Latitude(deg)": 37.99887306717723,
        "Longitude(deg)": -26.325471799684433,
        "Mean Anomaly(deg)": -240.23420193850868,
        "RAAN(deg)": 304.99513333176105,
        "Satellite Name": "Constellation 1 1349",
        "Satellite Number": 1349,
        "Semi-Major Axis(m)": 7083131.272910544,
        "Time(s)": 86
    },
    {
        "Altitude(m)": 705748.1202743809,
        "Argument of Periapsis(deg)": 0.0052154765433502885,
        "Eccentricity": 0.0,
        "Inclination(deg)": 45.0,
        "Latitude(deg)": 37.97174517185478,
        "Longitude(deg)": -26.26075039403691,
        "Mean Anomaly(deg)": -240.17350079825877,
        "RAAN(deg)": 304.9950767425955,
        "Satellite Name": "Constellation 1 1349",
        "Satellite Number": 1349,
        "Semi-Major Axis(m)": 7083131.272910544,
        "Time(s)": 87
    },
    {
        "Altitude(m)": 705742.531888775,
        "Argument of Periapsis(deg)": 0.005275424549595694,
        "Eccentricity": 0.0,
        "Inclination(deg)": 45.0,
        "Latitude(deg)": 37.94457691926919,
        "Longitude(deg)": -26.196079629893248,
        "Mean Anomaly(deg)": -240.1127996580089,
        "RAAN(deg)": 304.9950201534299,
        "Satellite Name": "Constellation 1 1349",
        "Satellite Number": 1349,
        "Semi-Major Axis(m)": 7083131.272910544,
        "Time(s)": 88
    },
    {
        "Altitude(m)": 705736.938273924,
        "Argument of Periapsis(deg)": 0.0053353725558411,
        "Eccentricity": 0.0,
        "Inclination(deg)": 45.0,
        "Latitude(deg)": 37.917368377691496,
        "Longitude(deg)": -26.13145966356664,
        "Mean Anomaly(deg)": -240.0520985177589,
        "RAAN(deg)": 304.9949635642643,
        "Satellite Name": "Constellation 1 1349",
        "Satellite Number": 1349,
        "Semi-Major Axis(m)": 7083131.272910544,
        "Time(s)": 89
    },
    {
        "Altitude(m)": 705731.3394644307,
        "Argument of Periapsis(deg)": 0.005395320562086505,
        "Eccentricity": 0.0,
        "Inclination(deg)": 45.0,
        "Latitude(deg)": 37.89011961535913,
        "Longitude(deg)": -26.066890146740565,
        "Mean Anomaly(deg)": -239.99139737750906,
        "RAAN(deg)": 304.99490697509873,
        "Satellite Name": "Constellation 1 1349",
        "Satellite Number": 1349,
        "Semi-Major Axis(m)": 7083131.272910544,
        "Time(s)": 90
    },
    {
        "Altitude(m)": 705725.7354949209,
        "Argument of Periapsis(deg)": 0.00545526856833191,
        "Eccentricity": 0.0,
        "Inclination(deg)": 45.0,
        "Latitude(deg)": 37.86283070047356,
        "Longitude(deg)": -26.002371235050784,
        "Mean Anomaly(deg)": -239.93069623725918,
        "RAAN(deg)": 304.9948503859332,
        "Satellite Name": "Constellation 1 1349",
        "Satellite Number": 1349,
        "Semi-Major Axis(m)": 7083131.272910544,
        "Time(s)": 91
    },
    {
        "Altitude(m)": 705720.1264000767,
        "Argument of Periapsis(deg)": 0.005515216574577317,
        "Eccentricity": 0.0,
        "Inclination(deg)": 45.0,
        "Latitude(deg)": 37.835501701201146,
        "Longitude(deg)": -25.9379029156997,
        "Mean Anomaly(deg)": -239.86999509700925,
        "RAAN(deg)": 304.9947937967676,
        "Satellite Name": "Constellation 1 1349",
        "Satellite Number": 1349,
        "Semi-Major Axis(m)": 7083131.272910544,
        "Time(s)": 92
    },
    {
        "Altitude(m)": 705714.5122146126,
        "Argument of Periapsis(deg)": 0.005575164580822722,
        "Eccentricity": 0.0,
        "Inclination(deg)": 45.0,
        "Latitude(deg)": 37.808132685672504,
        "Longitude(deg)": -25.873485175554936,
        "Mean Anomaly(deg)": -239.80929395675938,
        "RAAN(deg)": 304.9947372076021,
        "Satellite Name": "Constellation 1 1349",
        "Satellite Number": 1349,
        "Semi-Major Axis(m)": 7083131.272910544,
        "Time(s)": 93
    },
    {
        "Altitude(m)": 705708.8929732859,
        "Argument of Periapsis(deg)": 0.005635112587068129,
        "Eccentricity": 0.0,
        "Inclination(deg)": 45.0,
        "Latitude(deg)": 37.78072372198209,
        "Longitude(deg)": -25.809118001150363,
        "Mean Anomaly(deg)": -239.7485928165095,
        "RAAN(deg)": 304.99468061843646,
        "Satellite Name": "Constellation 1 1349",
        "Satellite Number": 1349,
        "Semi-Major Axis(m)": 7083131.272910544,
        "Time(s)": 94
    }
]